ION SCV-017             
1 63230U 25052W   26068.71648816  .00006457  00000+0  24539-3 0  9998
2 63230  97.4016 324.7516 0023746  44.9875 315.3282 15.26881798 54851
STARLINK-34878          
1 65334U 25189M   26068.65479191  .00019312  00000+0  66262-3 0  9990
2 65334  53.1597 206.7521 0001072  50.6921 309.4175 15.30192129 31106
